#dP2024  1 12  0  0  0.00000000      97 __u+U IGS20 FIT  IAC
## 2296 432000.00000000   900.00000000 60321 0.0000000000000
+  117   C06C07C08C09C10C11C12C13C14C19C20C21C22C23C24C25C26
+        C27C28C29C30C32C33C34C35C36C37C38C39C40C41C42C43C44
+        C45C46E02E03E04E05E07E08E09E10E11E12E13E14E15E18E19
+        E21E24E25E26E27E30E31E33E34E36G01G02G03G04G05G06G07
+        G08G09G10G11G12G13G14G15G16G17G18G19G20G21G22G23G25
+        G26G28G29G30G31G32J02J03J04R01R02R03R04R05R07R08R09
+        R11R12R13R14R15R16R17R18R19R20R21R22R24R25R26  0  0
++         7  7  7  7  7  7  7  7  7  5  6  6  5  5  5  5  6
++         6  6  6  6  6  5  6  6  6  6  6  7  6  5  6  6  6
++         6  6  4  4  4  4  4  4  4  4  4  4  4  4  4  4  4
++         4  4  4  4  4  4  4  4  4  4  3  3  3  3  4  3  4
++         4  3  3  3  3  3  3  3  4  3  3  3  4  3  3  3  3
++         4  3  4  3  3  3  9  9  9  7  6  7  7  7  6  7  6
++         7  7  8  7  7  6  6  6  7  8  7  7  7  8  9  0  0
%c M  cc GPS ccc cccc cccc cccc cccc ccccc ccccc ccccc ccccc
%c cc cc ccc ccc cccc cccc cccc cccc ccccc ccccc ccccc ccccc
%f  1.2500000  1.025000000  0.00000000000  0.000000000000000
%f  0.0000000  0.000000000  0.00000000000  0.000000000000000
%i    0    0    0    0      0      0      0      0         0
%i    0    0    0    0      0      0      0      0         0
/* INFORMATION & ANALYSIS CENTER (IAC)            FINAL DATA
/* S/V CLOCKS ARE ALIGNED TO GNSS TIME                      
/* G:C1WC2W R:C1PC2P E:C1XC5X C:C2IC6I J:C1CC2S             
/* PCV:IGS20_2290 OL/AL:FES2004  NONE     YN ORB:CoN CLK:CoN
*  2024 01 12  7 45  0.00000000
PC06 -17146.106406  37347.984309   8743.602808     43.045444
PC07  -1378.057153  34651.122974  24192.132323   -624.434140
PC08 -11014.567106  19507.083963 -35746.512405    118.212343
PC09  -9570.983575  36248.000949  19079.756678   -341.868741
PC10   4579.964227  37055.725452  20414.679200    129.193191
PC11  -8447.902121 -17642.055625  19974.417632    353.985644
PC12   4428.869593 -27092.816701   5061.650604    798.712139
PC13  -3085.914784  21663.859549 -35891.627742    406.552451
PC14 -19259.920011 -20133.802463    949.577441    -50.604885
PC19  22390.520226  14467.840813   8308.494915   -938.996123
PC20  14359.266088  22417.559319  -8398.653988    -57.752613
PC21   3223.873859 -17432.333124  21561.443055   -964.449926
PC22  18023.180853  -2219.213054  21193.332270   -150.838214
PC23 -26868.859701   7543.127835    460.822017   -791.306975
PC24  -5051.609409 -15583.013593 -22615.809476    781.878083
PC25 -22967.214635  -4661.840654 -15182.514938    299.924572
PC26  14400.467615 -16913.787719 -16891.130933   -233.541539
PC27  -9762.111578  25891.250399   3551.333906    255.578285
PC28 -16578.428522  14132.351811  17448.621415    193.848530
PC29  14279.467995   8272.562309 -22504.618107    227.077590
PC30   3164.357675  24749.453807 -12477.582749    -14.650081
PC32  -3151.459349  17413.763263 -21563.766641   -552.747884
PC33 -22455.204327 -14400.252298  -8171.900553   -942.905913
PC34  -4194.574580 -23982.440994  13650.387467    345.373174
PC35  16105.794959 -14737.466217 -17414.515172    459.191661
PC36  22401.531654   5657.711863  15652.008724    -55.900140
PC37 -15369.803591  16461.841921  16497.017743   -931.728713
PC38 -19604.602621  20254.429799 -31343.550925    129.958140
PC39 -20157.183793  36883.402929    508.602461     -6.594017
PC40  -5368.035569  30878.685242  28327.663822    -51.728884
PC41 -18474.206451   1547.704949 -20802.432181   -879.101841
PC42 -13130.174649 -22550.999612   9901.698106   -466.911705
PC43 -14006.212586  -9348.465016  22249.167071     56.081469
PC44   8917.615947 -26197.422836  -3744.544393    351.309112
PC45  26787.023327  -7725.452127   -844.879433    -62.439253
PC46   6040.284570  15143.564774  22631.271191   -114.973653
PE02   6148.882426 -15648.987664 -24370.660396     94.367595
PE03   3208.631845 -26715.597994  12322.945796    -86.459437
PE04  10104.254157  27120.973996   6202.954807   -301.726116
PE05  14494.268102 -10776.033678  23452.977004   4709.533285
PE07 -17336.959895 -12039.954043 -20748.116428    -97.966157
PE08  -9711.829147 -27390.215125  -5612.059838   -206.719765
PE09  17210.246802  12199.737121  20767.163157   -296.570429
PE10  12805.446360   9904.489005 -24779.129296   -593.514195
PE11  20355.592122    476.583738 -21492.737828   3280.498615
PE12   4268.769878  16911.928972 -23906.744538   -859.165765
PE13 -19897.631218  -1078.351914  21895.429414    -19.883332
PE14  19032.961016  -3163.284186 -22874.695106      8.195418
PE15  -3702.301773 -17211.645373  23809.077091    -79.735744
PE18 -10571.300379  20301.236160  15803.406169    201.512512
PE19  -4830.839083  25484.610037 -14249.627912   -829.137816
PE21 -23593.823273   4670.779350  17252.764885   -573.478908
PE24  27887.862713   9855.198443    612.989192   -537.532561
PE25  23823.721254  -4408.910376 -16998.225188     -0.635089
PE26 -24143.232418  15820.115228   6568.356030    336.907522
PE27 -28036.243465  -9520.406183   -227.497160   -247.322029
PE30 -15581.965766 -18078.419884 -17537.295771   -817.840896
PE31  15890.729123  17933.086137  17372.647680    -13.598426
PE33 -14882.817471  22987.627949 -11230.554482      5.811300
PE34  14376.263213 -23050.143588  11751.593464    -88.534322
PE36  24208.684649 -15444.255525  -7196.970202   -170.687714
PG01  -9720.433173  20517.757937 -13849.106396    165.888074
PG02 -14568.618000  21219.279705  -5530.413736   -502.087028
PG03  -5363.448470  13817.893095 -22180.346049    120.510340
PG04  -2471.140377  24487.110665  -9795.558889    263.963122
PG05  17314.669551  -8288.225107  18222.254514   -157.656698
PG06  19144.327681   -844.061769 -18363.347291    447.515827
PG07   4557.160668  16131.788170  20987.218597    -35.289472
PG08  -7417.140239  18988.033017  16706.331690   -161.688994
PG09   7335.548158  25436.694146   1628.070312     56.229395
PG10 -23847.937634 -11113.786244   4960.787805    -69.005789
PG11  22604.159905  -9910.071920  -9723.332020   -536.819536
PG12   6447.170274 -13884.046052 -21988.695842   -467.048695
PG13  13331.280630  -9835.014694  20506.649117    615.040450
PG14  21545.666508  13574.528627   7892.544225    296.451045
PG15   5278.492326 -19872.815265  16208.722320    116.399202
PG16 -22431.871356   1289.404314  14187.398642   -385.800807
PG17  12413.094074  18574.039060 -13821.169725    720.063644
PG18  -4983.861342 -14931.879181  21377.557868   -530.075428
PG19  14808.316882  10079.544155 -19913.358017    425.414527
PG20  25324.953152  -1930.810566   7520.037969    391.942349
PG21 -16986.291364  19653.517972  -1160.004584    138.662208
PG22  24066.756141  10841.813329    854.522508     49.663195
PG23 -15331.827971 -15320.467863  15499.505417    133.767890
PG25  -6764.152265 -16830.136609 -19824.988605    484.964293
PG26 -26187.397020  -2726.070467   4620.355435    201.076499
PG28 -17838.982620  -1777.133109 -19617.908152    -96.334015
PG29  -4149.672736 -26166.474393    750.985005   -608.799475
PG30  14122.964271   8228.139918  21092.982890   -446.436133
PG31 -22093.437791   6050.271226 -13991.476190   -227.243587
PG32 -14897.263721 -14932.986611 -16073.361229   -604.428746
PJ02 -28830.862071  20842.133251  27724.784854     -1.117803
PJ03 -32563.918005  26731.990269   8328.717061     -0.151881
PJ04 -20423.684274  24289.569181 -22671.791188     76.634637
PR01 -12046.077265   1584.199385 -22426.098426     74.382078
PR02    -45.712807  16257.473755 -19584.692865    -22.384519
PR03  11960.082735  21826.554610  -5387.706005     92.584345
PR04  16805.290831  15444.826405  11399.236478    219.033977
PR05  12772.418769    694.977211  22075.614662    125.237154
PR07 -12366.933922 -21862.548551   4653.169362     73.412773
PR08 -16960.901261 -15229.410892 -11429.093653    -73.977254
PR09  11709.400768 -11159.464644 -19737.752505    163.928942
PR11 -21349.981767  -4330.687818 -13252.993836   -226.321828
PR12 -24389.330208   4866.408099   5728.265664     35.520665
PR13 -14064.119345  10355.822027  18571.888666    -43.203520
PR14   7165.875854  10203.117596  22259.085559     25.933097
PR15  22173.943256   3911.057676  11999.903483     83.172638
PR16  24471.115730  -4824.081372  -5418.072208     22.388822
PR17   -921.553839  19348.673027 -16602.771845     51.631093
PR18   8937.868141   5542.408151 -23216.318570    121.704720
PR19  14438.509177  -9116.128786 -18943.465063   -261.740473
PR20  12235.994745 -22404.776427   -424.380573   -106.646013
PR21    809.304508 -19019.998278  16971.577404    -68.283159
PR22  -9673.835748  -5034.302033  23089.991996    102.768067
PR24 -11101.223094  22972.696374   -105.456801    -39.562003
PR25   1433.726488 -19309.561224  16605.543260     31.575421
PR26 -17023.817988 -15624.254629 -10763.988442   -203.919984
EOF
